[{"OBJECT_NAME":"ONEWEB-0710","OBJECT_ID":"2023-004AK","EPOCH":"2025-12-05T04:29:05.051328","MEAN_MOTION":13.17649529,"ECCENTRICITY":0.00015833,"INCLINATION":87.9116,"RA_OF_ASC_NODE":44.449,"ARG_OF_PERICENTER":105.316,"MEAN_ANOMALY":254.8147,"EPHEMERIS_TYPE":0,"CLASSIFICATION_TYPE":"U","NORAD_CAT_ID":55173,"ELEMENT_SET_NO":999,"REV_AT_EPOCH":14203,"BSTAR":0.0001679749,"MEAN_MOTION_DOT":7.8e-7,"MEAN_MOTION_DDOT":0},{"OBJECT_NAME":"ONEWEB-0711","OBJECT_ID":"2023-004AL","EPOCH":"2025-12-05T05:29:55.803840","MEAN_MOTION":13.1141533,"ECCENTRICITY":0.00013468,"INCLINATION":87.8867,"RA_OF_ASC_NODE":59.6843,"ARG_OF_PERICENTER":131.3485,"MEAN_ANOMALY":228.7759,"EPHEMERIS_TYPE":0,"CLASSIFICATION_TYPE":"U","NORAD_CAT_ID":55174,"ELEMENT_SET_NO":999,"REV_AT_EPOCH":14041,"BSTAR":0.00035595056,"MEAN_MOTION_DOT":1.39e-6,"MEAN_MOTION_DDOT":0},{"OBJECT_NAME":"ONEWEB-0713","OBJECT_ID":"2023-004AM","EPOCH":"2025-12-05T05:56:46.787136","MEAN_MOTION":13.11413619,"ECCENTRICITY":0.00013949,"INCLINATION":87.8864,"RA_OF_ASC_NODE":59.6837,"ARG_OF_PERICENTER":119.4367,"MEAN_ANOMALY":240.69,"EPHEMERIS_TYPE":0,"CLASSIFICATION_TYPE":"U","NORAD_CAT_ID":55175,"ELEMENT_SET_NO":999,"REV_AT_EPOCH":14040,"BSTAR":-0.00096620905,"MEAN_MOTION_DOT":-3.3e-6,"MEAN_MOTION_DDOT":0},{"OBJECT_NAME":"ONEWEB-0715","OBJECT_ID":"2023-004AN","EPOCH":"2025-12-05T05:49:27.640992","MEAN_MOTION":13.11416465,"ECCENTRICITY":0.0001208,"INCLINATION":87.8864,"RA_OF_ASC_NODE":59.6849,"ARG_OF_PERICENTER":80.5162,"MEAN_ANOMALY":279.6103,"EPHEMERIS_TYPE":0,"CLASSIFICATION_TYPE":"U","NORAD_CAT_ID":55176,"ELEMENT_SET_NO":999,"REV_AT_EPOCH":14044,"BSTAR":-0.00050735621,"MEAN_MOTION_DOT":-1.67e-6,"MEAN_MOTION_DDOT":0},{"OBJECT_NAME":"ONEWEB-0716","OBJECT_ID":"2023-004AP","EPOCH":"2025-12-05T04:19:22.190016","MEAN_MOTION":13.17648211,"ECCENTRICITY":0.00019584,"INCLINATION":87.9117,"RA_OF_ASC_NODE":44.4503,"ARG_OF_PERICENTER":98.8182,"MEAN_ANOMALY":261.3172,"EPHEMERIS_TYPE":0,"CLASSIFICATION_TYPE":"U","NORAD_CAT_ID":55177,"ELEMENT_SET_NO":999,"REV_AT_EPOCH":14203,"BSTAR":0.00013738262,"MEAN_MOTION_DOT":6.6e-7,"MEAN_MOTION_DDOT":0},{"OBJECT_NAME":"ONEWEB-0717","OBJECT_ID":"2023-004AQ","EPOCH":"2025-12-05T03:55:04.028448","MEAN_MOTION":13.17648236,"ECCENTRICITY":0.00012004,"INCLINATION":87.9126,"RA_OF_ASC_NODE":44.4237,"ARG_OF_PERICENTER":122.1038,"MEAN_ANOMALY":238.021,"EPHEMERIS_TYPE":0,"CLASSIFICATION_TYPE":"U","NORAD_CAT_ID":55178,"ELEMENT_SET_NO":999,"REV_AT_EPOCH":14208,"BSTAR":0.00022592443,"MEAN_MOTION_DOT":1.01e-6,"MEAN_MOTION_DDOT":0},{"OBJECT_NAME":"ONEWEB-0719","OBJECT_ID":"2023-004AR","EPOCH":"2025-12-05T04:09:38.647872","MEAN_MOTION":13.17649178,"ECCENTRICITY":0.00019631,"INCLINATION":87.9126,"RA_OF_ASC_NODE":44.4042,"ARG_OF_PERICENTER":104.4893,"MEAN_ANOMALY":255.6456,"EPHEMERIS_TYPE":0,"CLASSIFICATION_TYPE":"U","NORAD_CAT_ID":55179,"ELEMENT_SET_NO":999,"REV_AT_EPOCH":14203,"BSTAR":5.9012758e-5,"MEAN_MOTION_DOT":3.6e-7,"MEAN_MOTION_DDOT":0},{"OBJECT_NAME":"ONEWEB-0530","OBJECT_ID":"2023-029A","EPOCH":"2025-12-05T07:18:35.202240","MEAN_MOTION":13.20773584,"ECCENTRICITY":0.00015438,"INCLINATION":87.9189,"RA_OF_ASC_NODE":313.15,"ARG_OF_PERICENTER":100.1454,"MEAN_ANOMALY":259.9853,"EPHEMERIS_TYPE":0,"CLASSIFICATION_TYPE":"U","NORAD_CAT_ID":55796,"ELEMENT_SET_NO":999,"REV_AT_EPOCH":13555,"BSTAR":-3.0589494e-5,"MEAN_MOTION_DOT":1.0e-8,"MEAN_MOTION_DDOT":0},{"OBJECT_NAME":"ONEWEB-0534","OBJECT_ID":"2023-029B","EPOCH":"2025-12-04T23:44:03.113952","MEAN_MOTION":13.20773307,"ECCENTRICITY":0.00018994,"INCLINATION":87.9187,"RA_OF_ASC_NODE":313.2135,"ARG_OF_PERICENTER":85.3655,"MEAN_ANOMALY":274.7695,"EPHEMERIS_TYPE":0,"CLASSIFICATION_TYPE":"U","NORAD_CAT_ID":55797,"ELEMENT_SET_NO":999,"REV_AT_EPOCH":13551,"BSTAR":-6.278704e-5,"MEAN_MOTION_DOT":-1.3e-7,"MEAN_MOTION_DDOT":0},{"OBJECT_NAME":"ONEWEB-0556","OBJECT_ID":"2023-029C","EPOCH":"2025-12-04T23:53:09.561984","MEAN_MOTION":13.20770898,"ECCENTRICITY":0.00025075,"INCLINATION":87.9191,"RA_OF_ASC_NODE":313.212,"ARG_OF_PERICENTER":102.1161,"MEAN_ANOMALY":258.0254,"EPHEMERIS_TYPE":0,"CLASSIFICATION_TYPE":"U","NORAD_CAT_ID":55798,"ELEMENT_SET_NO":999,"REV_AT_EPOCH":13551,"BSTAR":-0.00024967365,"MEAN_MOTION_DOT":-8.9e-7,"MEAN_MOTION_DDOT":0},{"OBJECT_NAME":"ONEWEB-0562","OBJECT_ID":"2023-029D","EPOCH":"2025-12-04T10:51:20.848896","MEAN_MOTION":13.20770631,"ECCENTRICITY":0.0001781,"INCLINATION":87.9188,"RA_OF_ASC_NODE":313.3029,"ARG_OF_PERICENTER":113.747,"MEAN_ANOMALY":246.385,"EPHEMERIS_TYPE":0,"CLASSIFICATION_TYPE":"U","NORAD_CAT_ID":55799,"ELEMENT_SET_NO":999,"REV_AT_EPOCH":13544,"BSTAR":-1.9147e-5,"MEAN_MOTION_DOT":5.0e-8,"MEAN_MOTION_DDOT":0},{"OBJECT_NAME":"ONEWEB-0563","OBJECT_ID":"2023-029E","EPOCH":"2025-12-04T23:25:52.425408","MEAN_MOTION":13.20773115,"ECCENTRICITY":0.000207,"INCLINATION":87.919,"RA_OF_ASC_NODE":313.2254,"ARG_OF_PERICENTER":85.0981,"MEAN_ANOMALY":275.0388,"EPHEMERIS_TYPE":0,"CLASSIFICATION_TYPE":"U","NORAD_CAT_ID":55800,"ELEMENT_SET_NO":999,"REV_AT_EPOCH":13550,"BSTAR":-4.2076e-5,"MEAN_MOTION_DOT":-4.0e-8,"MEAN_MOTION_DDOT":0},{"OBJECT_NAME":"ONEWEB-0564","OBJECT_ID":"2023-029F","EPOCH":"2025-12-04T21:27:40.595040","MEAN_MOTION":13.2077117,"ECCENTRICITY":0.0001664,"INCLINATION":87.9185,"RA_OF_ASC_NODE":313.2181,"ARG_OF_PERICENTER":97.186,"MEAN_ANOMALY":262.9463,"EPHEMERIS_TYPE":0,"CLASSIFICATION_TYPE":"U","NORAD_CAT_ID":55801,"ELEMENT_SET_NO":999,"REV_AT_EPOCH":13550,"BSTAR":-0.00071516,"MEAN_MOTION_DOT":-2.78e-6,"MEAN_MOTION_DDOT":0},{"OBJECT_NAME":"ONEWEB-0638","OBJECT_ID":"2023-029G","EPOCH":"2025-12-04T23:43:05.288160","MEAN_MOTION":13.14503045,"ECCENTRICITY":0.00019746,"INCLINATION":87.8979,"RA_OF_ASC_NODE":328.459,"ARG_OF_PERICENTER":100.8554,"MEAN_ANOMALY":259.2798,"EPHEMERIS_TYPE":0,"CLASSIFICATION_TYPE":"U","NORAD_CAT_ID":55802,"ELEMENT_SET_NO":999,"REV_AT_EPOCH":13388,"BSTAR":-0.00018628647,"MEAN_MOTION_DOT":-5.6e-7,"MEAN_MOTION_DDOT":0},{"OBJECT_NAME":"ONEWEB-0639","OBJECT_ID":"2023-029H","EPOCH":"2025-12-05T00:24:06.167520","MEAN_MOTION":13.19724186,"ECCENTRICITY":0.00026766,"INCLINATION":87.9189,"RA_OF_ASC_NODE":343.6176,"ARG_OF_PERICENTER":73.7984,"MEAN_ANOMALY":286.3443,"EPHEMERIS_TYPE":0,"CLASSIFICATION_TYPE":"U","NORAD_CAT_ID":55803,"ELEMENT_SET_NO":999,"REV_AT_EPOCH":13329,"BSTAR":7.2174732e-5,"MEAN_MOTION_DOT":4.2e-7,"MEAN_MOTION_DDOT":0},{"OBJECT_NAME":"ONEWEB-0640","OBJECT_ID":"2023-029J","EPOCH":"2025-12-04T23:56:46.565952","MEAN_MOTION":13.14503096,"ECCENTRICITY":0.0002475,"INCLINATION":87.8982,"RA_OF_ASC_NODE":328.4447,"ARG_OF_PERICENTER":96.9062,"MEAN_ANOMALY":263.2349,"EPHEMERIS_TYPE":0,"CLASSIFICATION_TYPE":"U","NORAD_CAT_ID":55804,"ELEMENT_SET_NO":999,"REV_AT_EPOCH":13390,"BSTAR":-0.00034193142,"MEAN_MOTION_DOT":-1.14e-6,"MEAN_MOTION_DDOT":0},{"OBJECT_NAME":"ONEWEB-0641","OBJECT_ID":"2023-029K","EPOCH":"2025-12-05T07:33:58.958208","MEAN_MOTION":13.19724777,"ECCENTRICITY":0.00018923,"INCLINATION":87.9198,"RA_OF_ASC_NODE":343.5384,"ARG_OF_PERICENTER":85.5825,"MEAN_ANOMALY":274.5524,"EPHEMERIS_TYPE":0,"CLASSIFICATION_TYPE":"U","NORAD_CAT_ID":55805,"ELEMENT_SET_NO":999,"REV_AT_EPOCH":13334,"BSTAR":1.0218182e-5,"MEAN_MOTION_DOT":1.7e-7,"MEAN_MOTION_DDOT":0}]
