ONEWEB-0710             
1 55173U 23004AK  25339.18686402  .00000078  00000+0  16797-3 0  9994
2 55173  87.9116  44.4490 0001583 105.3160 254.8147 13.17649529142031
ONEWEB-0711             
1 55174U 23004AL  25339.22911810  .00000139  00000+0  35595-3 0  9999
2 55174  87.8867  59.6843 0001346 131.3485 228.7759 13.11415330140414
ONEWEB-0713             
1 55175U 23004AM  25339.24776374 -.00000330  00000+0 -96621-3 0  9998
2 55175  87.8864  59.6837 0001394 119.4367 240.6900 13.11413619140402
ONEWEB-0715             
1 55176U 23004AN  25339.24268103 -.00000167  00000+0 -50736-3 0  9990
2 55176  87.8864  59.6849 0001208  80.5162 279.6103 13.11416465140444
ONEWEB-0716             
1 55177U 23004AP  25339.18011794  .00000066  00000+0  13738-3 0  9993
2 55177  87.9117  44.4503 0001958  98.8182 261.3172 13.17648211142035
ONEWEB-0717             
1 55178U 23004AQ  25339.16324107  .00000101  00000+0  22592-3 0  9995
2 55178  87.9126  44.4237 0001200 122.1038 238.0210 13.17648236142087
ONEWEB-0719             
1 55179U 23004AR  25339.17336398  .00000036  00000+0  59013-4 0  9998
2 55179  87.9126  44.4042 0001963 104.4893 255.6456 13.17649178142038
ONEWEB-0530             
1 55796U 23029A   25339.30457410  .00000001  00000+0 -30589-4 0  9994
2 55796  87.9189 313.1500 0001543 100.1454 259.9853 13.20773584135557
ONEWEB-0534             
1 55797U 23029B   25338.98892493 -.00000013  00000+0 -62787-4 0  9991
2 55797  87.9187 313.2135 0001899  85.3655 274.7695 13.20773307135510
ONEWEB-0556             
1 55798U 23029C   25338.99524956 -.00000089  00000+0 -24967-3 0  9999
2 55798  87.9191 313.2120 0002507 102.1161 258.0254 13.20770898135515
ONEWEB-0562             
1 55799U 23029D   25338.45232464  .00000005  00000+0 -19147-4 0  9993
2 55799  87.9188 313.3029 0001781 113.7470 246.3850 13.20770631135444
ONEWEB-0563             
1 55800U 23029E   25338.97630122 -.00000004  00000+0 -42076-4 0  9993
2 55800  87.9190 313.2254 0002070  85.0981 275.0388 13.20773115135501
ONEWEB-0564             
1 55801U 23029F   25338.89421985 -.00000278  00000+0 -71516-3 0  9993
2 55801  87.9185 313.2181 0001664  97.1860 262.9463 13.20771170135501
ONEWEB-0638             
1 55802U 23029G   25338.98825565 -.00000056  00000+0 -18629-3 0  9996
2 55802  87.8979 328.4590 0001974 100.8554 259.2798 13.14503045133886
ONEWEB-0639             
1 55803U 23029H   25339.01673805  .00000042  00000+0  72175-4 0  9990
2 55803  87.9189 343.6176 0002676  73.7984 286.3443 13.19724186133294
ONEWEB-0640             
1 55804U 23029J   25338.99776118 -.00000114  00000+0 -34193-3 0  9997
2 55804  87.8982 328.4447 0002475  96.9062 263.2349 13.14503096133905
ONEWEB-0641             
1 55805U 23029K   25339.31526572  .00000017  00000+0  10218-4 0  9995
2 55805  87.9198 343.5384 0001892  85.5825 274.5524 13.19724777133341
